ORBCOMM FM37            
1 33064U 08031E   25344.42890697  .00002519  00000+0  35234-3 0  9997
2 33064  48.4377 225.3253 0004840  53.4286 116.7536 14.80590901940152
ORBCOMM FM40            
1 33065U 08031F   25344.05777394  .00003138  00000+0  40740-3 0  9991
2 33065  48.4390 208.0538 0005820  70.0255  83.3203 14.83085978940259
VESSELSAT 1             
1 37840U 11058C   25344.49603079  .00000421  00000+0  84931-4 0  9998
2 37840  19.9610 107.0027 0013626 326.6898  33.2649 14.11398019731248
ORBCOMM FM109           
1 40086U 14040A   25344.46685426  .00001346  00000+0  32310-3 0  9991
2 40086  47.0035 263.5578 0001220  49.6294 310.4698 14.58538060606793
ORBCOMM FM107           
1 40087U 14040B   25344.48625654  .00001259  00000+0  30395-3 0  9995
2 40087  47.0051 264.3562 0001391 340.7036  19.3797 14.58613914606878
ORBCOMM FM106           
1 40088U 14040C   25344.50984058  .00002186  00000+0  39108-3 0  9996
2 40088  47.0599  72.1162 0016506 169.9539 190.1685 14.70020067609412
ORBCOMM FM111           
1 40089U 14040D   25344.47118963  .00005474  00000+0  61283-3 0  9999
2 40089  47.0000 258.2203 0029195 316.7703  43.0903 14.87692994616460
ORBCOMM FM104           
1 40090U 14040E   25344.25788333  .00001345  00000+0  33321-3 0  9996
2 40090  47.0057 301.1750 0017093 289.7050  70.1991 14.57002056606296
